[{"OBJECT_NAME":"QIANFAN-85","OBJECT_ID":"2025-046N","EPOCH":"2026-03-09T20:51:05.308416","MEAN_MOTION":13.51003681,"ECCENTRICITY":0.0011533,"INCLINATION":88.9752,"RA_OF_ASC_NODE":310.9217,"ARG_OF_PERICENTER":232.9332,"MEAN_ANOMALY":127.0766,"EPHEMERIS_TYPE":0,"CLASSIFICATION_TYPE":"U","NORAD_CAT_ID":63171,"ELEMENT_SET_NO":999,"REV_AT_EPOCH":5923,"BSTAR":0.00022739553,"MEAN_MOTION_DOT":1.59e-6,"MEAN_MOTION_DDOT":0},{"OBJECT_NAME":"COSMOS 970 DEB","OBJECT_ID":"1977-121DS","EPOCH":"2026-03-02T13:56:10.296672","MEAN_MOTION":13.79350482,"ECCENTRICITY":0.0183985,"INCLINATION":65.8899,"RA_OF_ASC_NODE":21.1525,"ARG_OF_PERICENTER":254.1669,"MEAN_ANOMALY":103.9047,"EPHEMERIS_TYPE":0,"CLASSIFICATION_TYPE":"U","NORAD_CAT_ID":65005,"ELEMENT_SET_NO":999,"REV_AT_EPOCH":17349,"BSTAR":0.00020484,"MEAN_MOTION_DOT":1.57e-6,"MEAN_MOTION_DDOT":0}]
